{"type":"Feature","properties":{"MUN":"LONG BRANCH CITY","COUNTY":"MONMOUTH","MUN_LABEL":"Long Branch City","MUN_TYPE":"City","NAME":"Long Branch","GNIS_NAME":"City of Long Branch"},"geometry":{"type":"Polygon","coordinates":[[[-73.9886174,40.3265595],[-73.9884928,40.3265494],[-73.9882996,40.3265485],[-73.9881749,40.3265575],[-73.9880875,40.3265762],[-73.9879502,40.3266138],[-73.9878315,40.3266514],[-73.9877439,40.3266891],[-73.9876438,40.3267412],[-73.9875374,40.3268075],[-73.9874309,40.3268738],[-73.9873433,40.3269354],[-73.9872491,40.3270256],[-73.9871549,40.327111],[-73.987036,40.3271868],[-73.9868797,40.3272481],[-73.9866799,40.3273045],[-73.9863866,40.3273461],[-73.9861498,40.3273546],[-73.9859815,40.3273538],[-73.9856821,40.3273907],[-73.9853022,40.3274442],[-73.9851834,40.3269431],[-73.9850821,40.3266471],[-73.9848497,40.3262424],[-73.9846586,40.3259893],[-73.9844532,40.3257505],[-73.9843459,40.3255597],[-73.9843231,40.3255193],[-73.9842496,40.3252811],[-73.984243,40.3249135],[-73.9842737,40.3245821],[-73.9843326,40.3242796],[-73.984372,40.3241422],[-73.9843149,40.3241406],[-73.9839425,40.3241633],[-73.9837425,40.3241827],[-73.9835212,40.324206],[-73.983315,40.324239],[-73.9832752,40.3242426],[-73.982537,40.3235079],[-73.9820708,40.3235446],[-73.9820646,40.3235126],[-73.9813587,40.3235613],[-73.9813882,40.3236674],[-73.9806066,40.3237143],[-73.9806499,40.3240504],[-73.9805873,40.3240573],[-73.9804065,40.3240769],[-73.9802458,40.3236589],[-73.9782361,40.3237719],[-73.9780227,40.3233662],[-73.9779076,40.3231475],[-73.9779047,40.3231435],[-73.9777905,40.3229897],[-73.977595,40.3226204],[-73.977351,40.3221909],[-73.9745304,40.3221781],[-73.9745884,40.3217917],[-73.9746153,40.3214474],[-73.9746873,40.3202662],[-73.974766,40.3194813],[-73.9748215,40.3191926],[-73.9749634,40.3186692],[-73.9750589,40.3182103],[-73.9751002,40.3178809],[-73.9751054,40.3175161],[-73.9750874,40.3173493],[-73.9750637,40.3172751],[-73.975016,40.3171897],[-73.9750068,40.3171267],[-73.9750077,40.3170119],[-73.9750526,40.3168417],[-73.9752412,40.3162277],[-73.9754332,40.315486],[-73.9755132,40.31484],[-73.9755546,40.3144957],[-73.9755383,40.3140993],[-73.9755166,40.3137844],[-73.9755225,40.31364],[-73.975617,40.3133145],[-73.9758224,40.3127209],[-73.9758669,40.3125952],[-73.9758705,40.3125122],[-73.9759412,40.312257],[-73.9760394,40.3117236],[-73.9760571,40.3113963],[-73.9760464,40.3112106],[-73.9760114,40.3110532],[-73.9760097,40.3110391],[-73.9760162,40.3110003],[-73.9760321,40.3109029],[-73.9761314,40.3106132],[-73.9762337,40.3103211],[-73.9762851,40.3099499],[-73.9762895,40.3097735],[-73.9762697,40.3096252],[-73.9762512,40.30957],[-73.9762409,40.3095553],[-73.9762212,40.3095273],[-73.9761988,40.3094827],[-73.9762045,40.3094093],[-73.9762798,40.309139],[-73.9763596,40.3087692],[-73.976444,40.30815],[-73.9764711,40.3079065],[-73.9764862,40.3077529],[-73.976609,40.3072102],[-73.9766755,40.3069505],[-73.9766816,40.3068114],[-73.9766729,40.3066277],[-73.9766668,40.3064285],[-73.9766521,40.3062129],[-73.9766657,40.3060912],[-73.976697,40.3059599],[-73.9767314,40.305759],[-73.9767425,40.3056276],[-73.9767489,40.3054517],[-73.9767442,40.30524],[-73.9767206,40.3050214],[-73.9767162,40.304773],[-73.9767138,40.3044308],[-73.976695,40.3042471],[-73.9766529,40.3041502],[-73.9766033,40.304036],[-73.9765625,40.3039227],[-73.9765095,40.3037552],[-73.976425,40.3035828],[-73.97638,40.3035227],[-73.9763402,40.3034452],[-73.9763406,40.3033852],[-73.9763515,40.3032809],[-73.9763977,40.3031922],[-73.976466,40.303041],[-73.976539,40.3028796],[-73.9765634,40.3028139],[-73.9766086,40.3026991],[-73.9766384,40.3025749],[-73.9766602,40.3024627],[-73.9767004,40.3023466],[-73.9767723,40.3021925],[-73.9768491,40.3019071],[-73.9769885,40.3015046],[-73.9770307,40.3012912],[-73.9770478,40.3011088],[-73.9770775,40.3009987],[-73.9770779,40.3009485],[-73.9770679,40.3008863],[-73.9770322,40.3007578],[-73.9770013,40.3006855],[-73.9769316,40.3003873],[-73.9769114,40.300287],[-73.9768779,40.3002206],[-73.9768572,40.3001885],[-73.9768444,40.3001423],[-73.9768448,40.3000982],[-73.9768583,40.3000461],[-73.9769251,40.2998699],[-73.9771505,40.2993445],[-73.9774658,40.2985357],[-73.9775652,40.2982073],[-73.9776002,40.2980871],[-73.9776263,40.2979258],[-73.9776382,40.2977413],[-73.9776272,40.297634],[-73.9776119,40.2975838],[-73.977581,40.2975235],[-73.9775605,40.2974592],[-73.9775506,40.297379],[-73.9775413,40.2972385],[-73.9775475,40.2971022],[-73.9775773,40.296982],[-73.9776253,40.2968639],[-73.9777771,40.2965377],[-73.9780174,40.2959472],[-73.9781246,40.2956328],[-73.9782078,40.2953644],[-73.9782619,40.2951401],[-73.9782612,40.2950629],[-73.9782389,40.2948983],[-73.9782032,40.2947758],[-73.9781672,40.2946874],[-73.9781338,40.2946111],[-73.9781341,40.2945649],[-73.9781502,40.2945149],[-73.9782139,40.2944029],[-73.9784924,40.2937774],[-73.9787454,40.2930656],[-73.9789917,40.2923688],[-73.9791047,40.2919803],[-73.9791318,40.2918581],[-73.9791458,40.2917338],[-73.9791467,40.2916215],[-73.9791536,40.2912355],[-73.9791382,40.2911933],[-73.979128,40.2911551],[-73.9791284,40.291103],[-73.9791395,40.2910228],[-73.9792305,40.2907746],[-73.9794314,40.2903513],[-73.979602,40.289965],[-73.9799076,40.2890399],[-73.9800936,40.2885283],[-73.9801232,40.2884202],[-73.9801399,40.2882859],[-73.9801752,40.2881276],[-73.9802471,40.2879775],[-73.9802984,40.2877772],[-73.9803416,40.2875949],[-73.9803981,40.2873986],[-73.9803986,40.2873365],[-73.9803887,40.2872702],[-73.9803727,40.2871268],[-73.9803734,40.2870365],[-73.9803925,40.2869424],[-73.980433,40.2867741],[-73.9804523,40.2866518],[-73.9804503,40.2865736],[-73.9804432,40.2864733],[-73.9804156,40.2863188],[-73.9803785,40.2862073],[-73.9803268,40.2861088],[-73.9802882,40.2860204],[-73.9802861,40.2859562],[-73.9802944,40.2859001],[-73.9803679,40.2857109],[-73.9805807,40.2852767],[-73.9807319,40.2850166],[-73.9811021,40.2843776],[-73.9812424,40.2840122],[-73.9812997,40.2837136],[-73.9813182,40.2835142],[-73.9813245,40.2833778],[-73.9813357,40.2832836],[-73.9813614,40.2831805],[-73.9814094,40.2830664],[-73.9814364,40.2829582],[-73.9814588,40.2827638],[-73.9814875,40.282433],[-73.9814756,40.2822745],[-73.9814684,40.2821983],[-73.9814665,40.282106],[-73.9814827,40.2820399],[-73.9815174,40.2819538],[-73.9815924,40.2817336],[-73.9816265,40.2815482],[-73.9816246,40.281458],[-73.9816151,40.2813296],[-73.9816002,40.2812252],[-73.9815881,40.2810988],[-73.9815991,40.2810207],[-73.9816129,40.2809345],[-73.9816422,40.2808604],[-73.9817005,40.2807785],[-73.9817535,40.2806884],[-73.9818013,40.2806044],[-73.9818574,40.2804603],[-73.9819216,40.2802761],[-73.9819701,40.2801098],[-73.9819922,40.2799535],[-73.9820037,40.2798192],[-73.9819964,40.279747],[-73.9819785,40.2796887],[-73.9819606,40.2796325],[-73.9819584,40.2795783],[-73.9819677,40.2795573],[-73.9820075,40.2794913],[-73.9820235,40.2794513],[-73.9822116,40.2791754],[-73.9823125,40.2789853],[-73.9823897,40.2788132],[-73.9824298,40.2787031],[-73.982437,40.2786219],[-73.9824243,40.2785757],[-73.9823934,40.2785074],[-73.9823389,40.2784389],[-73.9822703,40.2783202],[-73.9822631,40.2782334],[-73.9822959,40.2779628],[-73.9823193,40.2779158],[-73.9824005,40.2778543],[-73.9825086,40.2777783],[-73.9825862,40.2776904],[-73.9827501,40.2773497],[-73.9827698,40.2772851],[-73.9827664,40.2772321],[-73.9827401,40.2771584],[-73.9827368,40.2770848],[-73.9827799,40.2769673],[-73.9828815,40.2767441],[-73.9829677,40.276591],[-73.9830105,40.2765468],[-73.9831293,40.276427],[-73.9831847,40.2763651],[-73.9832087,40.276315],[-73.9832195,40.276273],[-73.9832172,40.2762289],[-73.9832127,40.2762245],[-73.9831878,40.2761022],[-73.9831678,40.2760211],[-73.9831417,40.2759783],[-73.9830922,40.2759286],[-73.9830691,40.2758812],[-73.9830665,40.2758385],[-73.9830843,40.2758048],[-73.9831646,40.2756792],[-73.9832299,40.2755761],[-73.9832481,40.2755042],[-73.9832777,40.2754796],[-73.983319,40.275446],[-73.9833576,40.275399],[-73.9833815,40.2753361],[-73.9834441,40.2752149],[-73.9835982,40.2748456],[-73.9837271,40.2744998],[-73.9837974,40.2743213],[-73.9838161,40.2741775],[-73.9838168,40.274092],[-73.9837997,40.274029],[-73.983765,40.2739478],[-73.9837331,40.2739027],[-73.9837248,40.2738374],[-73.9837339,40.2737903],[-73.9837636,40.2737454],[-73.9838958,40.2735537],[-73.9839079,40.2734998],[-73.9839526,40.2734167],[-73.984027,40.2732776],[-73.9841615,40.2729791],[-73.9842439,40.2727557],[-73.9843229,40.2724074],[-73.9843484,40.2721466],[-73.9843549,40.2720282],[-73.9843534,40.2720248],[-73.9843388,40.2719175],[-73.9843448,40.2718993],[-73.984325,40.2718476],[-73.9842793,40.2718003],[-73.9842718,40.2717679],[-73.9842875,40.2717268],[-73.9843572,40.2716535],[-73.9844506,40.2715009],[-73.9845329,40.2712894],[-73.9845572,40.2711188],[-73.9845543,40.2709981],[-73.9845398,40.2708833],[-73.9844943,40.2708036],[-73.9844794,40.2707506],[-73.9845067,40.2706919],[-73.9845763,40.2706362],[-73.9846655,40.2705189],[-73.9847144,40.2704117],[-73.9847228,40.2703117],[-73.9847237,40.2701881],[-73.9847054,40.2700703],[-73.9846677,40.2699848],[-73.9846183,40.2699139],[-73.9845418,40.2698606],[-73.9844422,40.2698278],[-73.9843809,40.269804],[-73.9843293,40.269764],[-73.9843142,40.2697257],[-73.9843146,40.2696757],[-73.9843158,40.2695227],[-73.9843398,40.2693933],[-73.9843788,40.2693169],[-73.9844368,40.2692701],[-73.9845139,40.2692351],[-73.9845677,40.2692295],[-73.9846214,40.2692415],[-73.9846867,40.2692506],[-73.9847635,40.269248],[-73.9848675,40.269222],[-73.9849716,40.2691724],[-73.9850953,40.2690729],[-73.9852233,40.2689057],[-73.9853211,40.2687616],[-73.9854785,40.2682519],[-73.9853898,40.2678409],[-73.985312,40.2676393],[-73.9853062,40.2675972],[-73.9853247,40.2675645],[-73.9854105,40.2675275],[-73.9855212,40.2674251],[-73.9856078,40.2672804],[-73.9857136,40.2670189],[-73.9857451,40.2668927],[-73.9857461,40.2667618],[-73.9857287,40.26664],[-73.9857171,40.2665605],[-73.9856564,40.2665134],[-73.9855712,40.2664709],[-73.985535,40.2664146],[-73.9855292,40.2663725],[-73.9855845,40.2663306],[-73.9857055,40.2662762],[-73.9858437,40.2661739],[-73.9859269,40.266076],[-73.9859889,40.265957],[-73.9859958,40.2658494],[-73.985985,40.2656576],[-73.9859584,40.2655452],[-73.9859129,40.2654959],[-73.9858552,40.2654558],[-73.9857701,40.265411],[-73.9857215,40.265371],[-73.9857005,40.2653195],[-73.9857215,40.265171],[-73.9857833,40.2650754],[-73.9858385,40.2650429],[-73.9859149,40.2650362],[-73.9860616,40.2650135],[-73.9862393,40.2649348],[-73.9863253,40.2648767],[-73.9863961,40.2647904],[-73.9864733,40.2646808],[-73.9864953,40.2646061],[-73.9865115,40.2644822],[-73.9864941,40.2643558],[-73.9864415,40.2642491],[-73.9863809,40.264181],[-73.9862898,40.2641198],[-73.9862197,40.2640938],[-73.9861527,40.2640818],[-73.986107,40.2640652],[-73.986098,40.2640394],[-73.9860983,40.2640067],[-73.9861572,40.26389],[-73.9862002,40.2638504],[-73.9862644,40.2638413],[-73.986362,40.2638605],[-73.986423,40.2638607],[-73.98653,40.2638495],[-73.9866431,40.2638266],[-73.9867473,40.2637827],[-73.9867475,40.2637825],[-73.9868547,40.2637153],[-73.9869377,40.2636361],[-73.9869995,40.2635358],[-73.9871153,40.2633644],[-73.9872208,40.2631403],[-73.9873422,40.2628368],[-73.9873586,40.2626895],[-73.9873408,40.2626169],[-73.9872816,40.2625687],[-73.9871506,40.2625353],[-73.9870897,40.262514],[-73.9870776,40.2624929],[-73.9870809,40.2624672],[-73.9871178,40.262437],[-73.9871611,40.2624055],[-73.987259,40.2623347],[-73.9873145,40.2622554],[-73.9874164,40.2621061],[-73.987471,40.2619817],[-73.9875158,40.2618797],[-73.9876417,40.2615913],[-73.9877168,40.2613461],[-73.9877172,40.2612899],[-73.9877146,40.2612385],[-73.9876936,40.2611822],[-73.9876879,40.2611354],[-73.9876976,40.2610606],[-73.9877163,40.2610069],[-73.9877569,40.2608854],[-73.9878274,40.2606553],[-73.9878404,40.2605431],[-73.9878335,40.2604484],[-73.9878248,40.2603805],[-73.9878059,40.2603529],[-73.9918784,40.26234],[-73.9930184,40.2624276],[-73.9940436,40.2622215],[-73.9957209,40.2623773],[-73.9971922,40.2628442],[-73.9972025,40.2632409],[-74.00017,40.2633671],[-74.0001813,40.2634069],[-74.0003531,40.263986],[-74.000372,40.264054],[-74.0005452,40.2646845],[-74.000668,40.2651275],[-74.0007407,40.2653896],[-74.0008947,40.2659296],[-74.0011228,40.2667281],[-74.0012768,40.2672902],[-74.0013131,40.2674198],[-74.0014911,40.2680487],[-74.0018043,40.2691806],[-74.0019776,40.2697916],[-74.0020821,40.2701745],[-74.0021641,40.2704501],[-74.0021968,40.2706101],[-74.0022497,40.2708686],[-74.0023348,40.271348],[-74.0023968,40.2718058],[-74.0024687,40.2722919],[-74.0024857,40.2724067],[-74.0025784,40.2731041],[-74.002659,40.2735942],[-74.0026744,40.2736799],[-74.0026994,40.2738195],[-74.0027404,40.2740526],[-74.00278,40.2742774],[-74.0028218,40.2744961],[-74.0028654,40.2747246],[-74.0029143,40.2750573],[-74.0029499,40.2753005],[-74.0029674,40.2754507],[-74.0029759,40.2755651],[-74.0029798,40.2756652],[-74.0029792,40.2757581],[-74.0029783,40.2758761],[-74.0029682,40.2759869],[-74.0029485,40.2761262],[-74.0028985,40.2764157],[-74.0028949,40.2764369],[-74.0028257,40.2768303],[-74.0027975,40.2769906],[-74.0027295,40.2773477],[-74.0027002,40.2775263],[-74.0026919,40.2776591],[-74.0026746,40.2778336],[-74.0026641,40.2779944],[-74.0026676,40.2781482],[-74.0026715,40.278259],[-74.0026847,40.2783734],[-74.0027036,40.2784849],[-74.0027205,40.2785845],[-74.00277,40.2788313],[-74.0028285,40.2791247],[-74.0028981,40.2794715],[-74.0029591,40.2797758],[-74.0031661,40.2808276],[-74.0032446,40.2811923],[-74.0032925,40.2814144],[-74.0033058,40.2814865],[-74.0033598,40.2817792],[-74.0029006,40.281746],[-74.0016052,40.2816674],[-74.0016269,40.2817786],[-74.0018535,40.2829346],[-74.0019448,40.2834004],[-74.0019965,40.2836564],[-74.0020469,40.2839061],[-74.002189,40.2846469],[-74.0022747,40.2850938],[-74.0024241,40.2858655],[-74.0025805,40.2866726],[-74.0026345,40.2869445],[-74.0026584,40.2870876],[-74.0026639,40.287183],[-74.0026443,40.2873115],[-74.0025048,40.2876636],[-74.0022702,40.2882441],[-74.0021815,40.288463],[-74.0021239,40.2886772],[-74.0020343,40.2890199],[-74.0019506,40.2893961],[-74.001867,40.2897675],[-74.001758,40.2902007],[-74.0017359,40.2903018],[-74.0016872,40.2905245],[-74.0015699,40.2912389],[-74.0015549,40.2913265],[-74.0014203,40.2921104],[-74.0014071,40.2922152],[-74.0014188,40.2923201],[-74.0014665,40.2925968],[-74.0014943,40.2927273],[-74.0015483,40.292981],[-74.0017008,40.2929099],[-74.0031185,40.2922488],[-74.0035204,40.2920563],[-74.0035819,40.2921125],[-74.0040703,40.2925578],[-74.0043236,40.2927927],[-74.0045402,40.2929935],[-74.0047875,40.2932233],[-74.0049913,40.2934387],[-74.0050802,40.2935517],[-74.0052811,40.2938069],[-74.005713,40.294333],[-74.005748,40.2943742],[-74.0060462,40.2947252],[-74.0060636,40.2947454],[-74.0063548,40.295084],[-74.0064414,40.2951606],[-74.0065591,40.2952422],[-74.0067203,40.2953334],[-74.0070425,40.2955302],[-74.007247,40.2956502],[-74.0073337,40.2957077],[-74.0074079,40.2957796],[-74.0074446,40.2958703],[-74.0074745,40.2960324],[-74.0075037,40.2962995],[-74.0075627,40.2967681],[-74.0075979,40.2970481],[-74.0076033,40.2970945],[-74.0076611,40.2975883],[-74.0077737,40.2985502],[-74.0077864,40.2986583],[-74.007844,40.2987229],[-74.0087318,40.3015378],[-74.0091462,40.3019405],[-74.009152,40.3019609],[-74.009158,40.3019762],[-74.0091688,40.3019874],[-74.0092019,40.3020186],[-74.0092455,40.3020467],[-74.0093505,40.3021106],[-74.0094116,40.3021557],[-74.0094733,40.3021923],[-74.009536,40.3022267],[-74.0095995,40.3022594],[-74.0096617,40.3022825],[-74.0097148,40.3022989],[-74.0097243,40.3023083],[-74.0097283,40.3023178],[-74.0097294,40.3023294],[-74.0097281,40.3023514],[-74.009728,40.3023598],[-74.0097306,40.302368],[-74.0097357,40.3023773],[-74.0097444,40.302384],[-74.0097894,40.3024018],[-74.0098339,40.3024197],[-74.0098692,40.3024314],[-74.0098865,40.3024359],[-74.0098958,40.3024413],[-74.0099033,40.3024479],[-74.0099078,40.3024564],[-74.0099254,40.3024981],[-74.0099349,40.3025222],[-74.0099447,40.3025338],[-74.0099562,40.3025423],[-74.009966,40.3025476],[-74.0099891,40.3025566],[-74.0100045,40.3025597],[-74.0100291,40.3025621],[-74.0100604,40.3025664],[-74.0100748,40.3025703],[-74.0100875,40.3025754],[-74.0100996,40.3025835],[-74.0101123,40.3025981],[-74.0101264,40.3026106],[-74.0101535,40.3026272],[-74.0101772,40.3026384],[-74.0102515,40.3026644],[-74.0103845,40.3027027],[-74.0104233,40.3027115],[-74.0104453,40.3027142],[-74.0104771,40.3027173],[-74.0104875,40.3027213],[-74.0104985,40.3027265],[-74.0105189,40.3027479],[-74.0105429,40.3027987],[-74.0105799,40.3028959],[-74.0105924,40.3029234],[-74.0106183,40.3029568],[-74.0106418,40.3029853],[-74.0106824,40.3030236],[-74.01074,40.3030763],[-74.0107786,40.3031097],[-74.0108241,40.3031454],[-74.0109037,40.3031974],[-74.0109365,40.3032217],[-74.0109889,40.3032602],[-74.0110847,40.3033524],[-74.0111416,40.3034034],[-74.0111831,40.3034333],[-74.0112552,40.303482],[-74.011333,40.3035356],[-74.0113722,40.3035615],[-74.0114369,40.3036004],[-74.0115165,40.3036548],[-74.0115465,40.3036749],[-74.011566,40.3036945],[-74.0116246,40.3037644],[-74.0116569,40.3037983],[-74.0116926,40.3038251],[-74.0117548,40.3038737],[-74.0117871,40.3038987],[-74.0118251,40.3039335],[-74.0118429,40.3039526],[-74.0118838,40.3039976],[-74.01192,40.3040346],[-74.0119945,40.3040784],[-74.0120285,40.3041038],[-74.012081,40.3041342],[-74.0121306,40.3041681],[-74.0121739,40.3041972],[-74.0121929,40.3042137],[-74.0122157,40.304247],[-74.0124999,40.3048953],[-74.0124658,40.3049047],[-74.0124449,40.3049117],[-74.0124268,40.3049198],[-74.0124064,40.3049311],[-74.0123898,40.3049445],[-74.0123781,40.3049586],[-74.0123566,40.304984],[-74.0123431,40.305007],[-74.0123192,40.3050629],[-74.0127574,40.3062268],[-74.0113171,40.3066003],[-74.0105816,40.3053475],[-74.0105682,40.3053499],[-74.0104224,40.3053953],[-74.0103834,40.3054129],[-74.0103397,40.3054333],[-74.0103016,40.3054558],[-74.0102597,40.305479],[-74.0102085,40.3055164],[-74.0101726,40.3055468],[-74.0100237,40.3057163],[-74.0099377,40.3058173],[-74.0097991,40.3059657],[-74.0096816,40.306073],[-74.0093881,40.3063114],[-74.0089702,40.3065961],[-74.0086008,40.3068271],[-74.008422,40.306954],[-74.0081936,40.3071559],[-74.0081283,40.3072166],[-74.0080798,40.3072689],[-74.008005,40.3073607],[-74.0079206,40.3074831],[-74.0079158,40.3074933],[-74.0078454,40.3076912],[-74.0078184,40.3078287],[-74.0078067,40.3079151],[-74.0078009,40.3080839],[-74.0078189,40.3082684],[-74.0079099,40.3087495],[-74.0080083,40.3092393],[-74.0080245,40.3094308],[-74.0080375,40.30955],[-74.0080296,40.3096209],[-74.008006,40.3096903],[-74.0079373,40.3098261],[-74.0077761,40.3100921],[-74.0076666,40.3102405],[-74.0075732,40.3103422],[-74.0074968,40.3104057],[-74.0074094,40.3104607],[-74.0072532,40.3105366],[-74.006876,40.3106896],[-74.0066337,40.3107651],[-74.0059044,40.3109251],[-74.0045614,40.3111491],[-74.0044834,40.3111743],[-74.0043755,40.3112363],[-74.0043122,40.3112814],[-74.0042141,40.3113677],[-74.004201,40.3113802],[-74.0033303,40.312509],[-74.0031338,40.3127269],[-74.0027384,40.3130147],[-74.0019785,40.3135209],[-74.0012343,40.3139345],[-74.0003381,40.3144632],[-74.0001551,40.3145732],[-74.0000015,40.3146656],[-73.9997813,40.3147934],[-73.9994398,40.3149451],[-73.9989284,40.3152353],[-73.9981685,40.3158188],[-73.997507,40.3164132],[-73.9969766,40.3169339],[-73.9967988,40.3172475],[-73.9966772,40.3175271],[-73.9965705,40.3178296],[-73.9965086,40.3181151],[-73.9964912,40.3182469],[-73.9964688,40.3189839],[-73.996411,40.3195267],[-73.9963603,40.3200104],[-73.9962434,40.3205813],[-73.9961228,40.320972],[-73.9958036,40.3218431],[-73.9956721,40.322347],[-73.9956021,40.3227225],[-73.9956038,40.3229386],[-73.9957028,40.3231913],[-73.9958781,40.3234787],[-73.9960018,40.3236816],[-73.9964544,40.3243168],[-73.9967008,40.3246524],[-73.9968658,40.3250649],[-73.9970133,40.3255906],[-73.9971955,40.326415],[-73.9973104,40.3272494],[-73.9973497,40.3278365],[-73.9973907,40.3286602],[-73.9972662,40.329576],[-73.9972479,40.3297032],[-73.9967449,40.3296173],[-73.9958406,40.3293448],[-73.9946188,40.329015],[-73.9938673,40.3288328],[-73.9932837,40.3286848],[-73.9926127,40.3284804],[-73.9917598,40.3281858],[-73.9908077,40.3278229],[-73.9907735,40.327809],[-73.9902144,40.3275729],[-73.9898045,40.3273946],[-73.9895563,40.3272552],[-73.9894169,40.3271353],[-73.9892563,40.3269438],[-73.9891387,40.3268384],[-73.9890397,40.3267474],[-73.9889404,40.3266897],[-73.9888225,40.3266224],[-73.9887356,40.3265886],[-73.9887316,40.3265876],[-73.9886174,40.3265595]]]}}
